COSMOS 2433 (720)       
1 32275U 07052A   26161.34602035 -.00000036  00000+0  00000+0 0  9990
2 32275  65.5811 316.1641 0002223 191.9747 168.0168  2.13104347144910
COSMOS 2432 (719)       
1 32276U 07052B   26162.35423378 -.00000041  00000+0  00000+0 0  9990
2 32276  65.5974 316.2581 0007764 332.8636  24.5023  2.13103380144959
COSMOS 2434 (721)       
1 32393U 07065A   26161.13852979  .00000115  00000+0  00000+0 0  9993
2 32393  64.3174 192.1535 0001092 340.0608 110.6232  2.13101497143625
COSMOS 2436 (723)       
1 32395U 07065C   26162.37661148  .00000121  00000+0  00000+0 0  9995
2 32395  64.3262 192.1838 0017255 354.1299  98.7062  2.13100308143606
COSMOS 2456 (730)       
1 36111U 09070A   26161.51650904 -.00000029  00000+0  00000+0 0  9994
2 36111  65.0072  71.1996 0004845 328.3818 210.3828  2.13103917128283
COSMOS 2457 (733)       
1 36112U 09070B   26162.30250660 -.00000032  00000+0  00000+0 0  9992
2 36112  64.9933  71.0172 0002496 127.8913  61.3292  2.13101298128303
COSMOS 2460 (732)       
1 36402U 10007C   26162.75940317 -.00000044  00000+0  00000+0 0  9993
2 36402  65.4240 314.6503 0002078 109.7593  71.9337  2.13101571126618
COSMOS 2476 (744)       
1 37867U 11064A   26161.15145711 -.00000025  00000+0  00000+0 0  9990
2 37867  65.2660  73.1090 0022909 239.3726 287.6651  2.13104012113613
COSMOS 2477 (745)       
1 37868U 11064B   26162.34003948 -.00000030  00000+0  00000+0 0  9994
2 37868  65.2729  73.1484 0020023 240.6132 298.6270  2.13103125113633
COSMOS 2475 (743)       
1 37869U 11064C   26162.40183649 -.00000030  00000+0  00000+0 0  9999
2 37869  65.2798  73.1677 0025683 253.4267 288.3654  2.13102008113644
COSMOS 2485 (747)       
1 39155U 13019A   26162.27886735 -.00000029  00000+0  00000+0 0  9990
2 39155  65.4165  73.8029 0023361 234.5519 125.2463  2.13103450102156
COSMOS 2492 (754)       
1 39620U 14012A   26160.36073044 -.00000033  00000+0  00000+0 0  9995
2 39620  65.3026 314.2024 0010486 325.9791  33.9512  2.13103521 95077
COSMOS 2500 (755)       
1 40001U 14032A   26161.93834144 -.00000040  00000+0  00000+0 0  9990
2 40001  65.2368 313.8964 0007111 183.5572 176.4316  2.13106108 93329
COSMOS 2501 (702K)      
1 40315U 14075A   26162.20036045  .00000121  00000+0  00000+0 0  9999
2 40315  63.6159 190.5792 0022542 212.2512 147.6843  2.13101483 89720
COSMOS 2514 (751)       
1 41330U 16008A   26161.71553164 -.00000040  00000+0  00000+0 0  9997
2 41330  65.0259 313.2287 0011030 197.5647 162.3913  2.13102560 80485
COSMOS 2522 (752)       
1 42939U 17055A   26161.08408941  .00000114  00000+0  00000+0 0  9999
2 42939  64.0782 192.1263 0010679 240.0455 119.9210  2.13102025 67825
COSMOS 2527 (756)       
1 43508U 18053A   26161.98424862 -.00000028  00000+0  00000+0 0  9995
2 43508  65.5740  74.1146 0007392 241.2390 118.7028  2.13102302 62148
COSMOS 2529 (757)       
1 43687U 18086A   26162.08081983  .00000119  00000+0  00000+0 0  9994
2 43687  64.2944 192.8006 0011774 256.0467 103.8983  2.13102175 59159
COSMOS 2534 (758)       
1 44299U 19030A   26162.46758321  .00000121  00000+0  00000+0 0  9996
2 44299  64.3681 192.8091 0013354 275.1032 156.1197  2.13102304 54807
COSMOS 2544 (759)       
1 44850U 19088A   26160.99045334 -.00000023  00000+0  00000+0 0  9993
2 44850  65.5614  73.9710 0013431 259.4785 100.3880  2.13102164 50565
COSMOS 2545 (760)       
1 45358U 20018A   26162.12399718 -.00000043  00000+0  00000+0 0  9999
2 45358  64.3587 312.6323 0008122 231.2557 128.6643  2.13102646 48533
COSMOS 2547 (705K)      
1 46805U 20075A   26162.31350737  .00000121  00000+0  00000+0 0  9995
2 46805  64.5991 192.6716 0009249 239.6437 120.3411  2.13100304 43787
COSMOS 2557 (706K)      
1 52984U 22075A   26160.13153051 -.00000034  00000+0  00000+0 0  9994
2 52984  64.3021 314.7692 0010229 275.2232  84.6583  2.13102144 30549
COSMOS 2559 (707K)      
1 54031U 22130A   26161.35892150 -.00000039  00000+0  00000+0 0  9991
2 54031  64.2757 314.8093 0012427 178.3735 181.6269  2.13101643 28547
COSMOS 2564 (761)       
1 54377U 22161A   26162.14075417  .00000120  00000+0  00000+0 0  9995
2 54377  64.7412 192.9125 0012115 224.4932 135.4856  2.13102011 27504
COSMOS 2569 (703K)      
1 57517U 23114A   26162.15306544 -.00000030  00000+0  00000+0 0  9993
2 57517  65.2988  72.8239 0010903 296.8975  63.0089  2.13103655 22135
COSMOS 2584 (704K)      
1 63130U 25042A   26159.22437978 -.00000015  00000+0  00000+0 0  9996
2 63130  65.0792  73.1067 0005828 228.4476 131.5246  2.13103875  9858
COSMOS 2596 (708K)      
1 65590U 25206B   26161.38985729 -.00000039  00000+0  00000+0 0  9998
2 65590  64.6376 315.2225 0011087 312.7926  24.8898  2.13100656  5767
